TEVEL2-6                
1 63215U 25052F   26068.64958975  .00021046  00000+0  70909-3 0  9996
2 63215  97.4016 325.0381 0004769  95.6604 264.5181 15.30760889 54861
STARLINK-33830          
1 63587U 25076U   26067.07587061  .00025726  00000+0  94017-3 0  9999
2 63587  43.0005 330.8038 0001635 272.2843  87.7822 15.27612559 51587
